{"type": "FeatureCollection", "features": [ {"type": "Feature", "properties": {"norad_id": 51444, "name": "CSG-2", "group": "resource", "lat": 39.26654279802615, "lon": 158.1932897500073, "alt_km": 618.7645296313021, "timestamp": "2025-12-09T07:41:32.860757+00:00", "meta": {"OBJECT_NAME": "CSG-2", "OBJECT_ID": "2022-008A", "EPOCH": "2025-12-08T23:24:45.518112", "MEAN_MOTION": 14.82157235, "ECCENTRICITY": 0.00015063, "INCLINATION": 97.8801, "RA_OF_ASC_NODE": 164.355, "ARG_OF_PERICENTER": 82.4847, "MEAN_ANOMALY": 277.6537, "EPHEMERIS_TYPE": 0, "CLASSIFICATION_TYPE": "U", "NORAD_CAT_ID": 51444, "ELEMENT_SET_NO": 999, "REV_AT_EPOCH": 20841, "BSTAR": 8.1361484e-05, "MEAN_MOTION_DOT": 5.96e-06, "MEAN_MOTION_DDOT": 0}, "tle": {"line1": "1 51444U 22008A   25342.97552683  .00000596  00000+0  81361-4 0  9993", "line2": "2 51444  97.8801 164.3550 0001506  82.4847 277.6537 14.82157235208412"}}, "geometry": {"type": "Point", "coordinates": [158.1932897500073, 39.26654279802615]}}, {"type": "Feature", "properties": {"norad_id": 52912, "name": "GAOFEN-12 03", "group": "resource", "lat": -12.22611343407389, "lon": -127.53927020679015, "alt_km": 634.7095814181921, "timestamp": "2025-12-09T07:41:32.860767+00:00", "meta": {"OBJECT_NAME": "GAOFEN-12 03", "OBJECT_ID": "2022-069A", "EPOCH": "2025-12-08T22:00:35.229024", "MEAN_MOTION": 14.79595417, "ECCENTRICITY": 0.000229, "INCLINATION": 97.8483, "RA_OF_ASC_NODE": 230.354, "ARG_OF_PERICENTER": 66.4054, "MEAN_ANOMALY": 293.7399, "EPHEMERIS_TYPE": 0, "CLASSIFICATION_TYPE": "U", "NORAD_CAT_ID": 52912, "ELEMENT_SET_NO": 999, "REV_AT_EPOCH": 18647, "BSTAR": 0.00028370715, "MEAN_MOTION_DOT": 2.075e-05, "MEAN_MOTION_DDOT": 0}, "tle": {"line1": "1 52912U 22069A   25342.91707441  .00002075  00000+0  28371-3 0  9994", "line2": "2 52912  97.8483 230.3540 0002290  66.4054 293.7399 14.79595417186475"}}, "geometry": {"type": "Point", "coordinates": [-127.53927020679015, -12.22611343407389]}}, {"type": "Feature", "properties": {"norad_id": 54754, "name": "SWOT", "group": "resource", "lat": -37.336905790760106, "lon": 121.25832182370442, "alt_km": 899.3930740004998, "timestamp": "2025-12-09T07:41:32.860778+00:00", "meta": {"OBJECT_NAME": "SWOT", "OBJECT_ID": "2022-173A", "EPOCH": "2025-12-08T23:47:36.947040", "MEAN_MOTION": 14.00173838, "ECCENTRICITY": 3.42e-05, "INCLINATION": 77.6103, "RA_OF_ASC_NODE": 292.0497, "ARG_OF_PERICENTER": 122.948, "MEAN_ANOMALY": 237.1704, "EPHEMERIS_TYPE": 0, "CLASSIFICATION_TYPE": "U", "NORAD_CAT_ID": 54754, "ELEMENT_SET_NO": 999, "REV_AT_EPOCH": 15253, "BSTAR": 7.7321923e-05, "MEAN_MOTION_DOT": 1.11e-06, "MEAN_MOTION_DDOT": 0}, "tle": {"line1": "1 54754U 22173A   25342.99139985  .00000111  00000+0  77322-4 0  9996", "line2": "2 54754  77.6103 292.0497 0000342 122.9480 237.1704 14.00173838152534"}}, "geometry": {"type": "Point", "coordinates": [121.25832182370442, -37.336905790760106]}}, {"type": "Feature", "properties": {"norad_id": 57654, "name": "GAOFEN-12 04", "group": "resource", "lat": 23.361243869187252, "lon": 82.57324295997401, "alt_km": 629.7769695223615, "timestamp": "2025-12-09T07:41:32.860788+00:00", "meta": {"OBJECT_NAME": "GAOFEN-12 04", "OBJECT_ID": "2023-123A", "EPOCH": "2025-12-08T22:52:25.525344", "MEAN_MOTION": 14.7968217, "ECCENTRICITY": 0.000139, "INCLINATION": 97.9118, "RA_OF_ASC_NODE": 258.7678, "ARG_OF_PERICENTER": 73.7792, "MEAN_ANOMALY": 286.3573, "EPHEMERIS_TYPE": 0, "CLASSIFICATION_TYPE": "U", "NORAD_CAT_ID": 57654, "ELEMENT_SET_NO": 999, "REV_AT_EPOCH": 12449, "BSTAR": 0.00027253236, "MEAN_MOTION_DOT": 1.995e-05, "MEAN_MOTION_DDOT": 0}, "tle": {"line1": "1 57654U 23123A   25342.95307321  .00001995  00000+0  27253-3 0  9999", "line2": "2 57654  97.9118 258.7678 0001390  73.7792 286.3573 14.79682170124494"}}, "geometry": {"type": "Point", "coordinates": [82.57324295997401, 23.361243869187252]}}, {"type": "Feature", "properties": {"norad_id": 59065, "name": "PARS 1", "group": "resource", "lat": 19.020868932927506, "lon": 136.771669157325, "alt_km": 442.1956741669492, "timestamp": "2025-12-09T07:41:32.860799+00:00", "meta": {"OBJECT_NAME": "PARS 1", "OBJECT_ID": "2024-039Q", "EPOCH": "2025-12-08T23:12:19.948320", "MEAN_MOTION": 15.40844271, "ECCENTRICITY": 0.00126863, "INCLINATION": 97.4637, "RA_OF_ASC_NODE": 313.8202, "ARG_OF_PERICENTER": 83.4205, "MEAN_ANOMALY": 276.8485, "EPHEMERIS_TYPE": 0, "CLASSIFICATION_TYPE": "U", "NORAD_CAT_ID": 59065, "ELEMENT_SET_NO": 999, "REV_AT_EPOCH": 9930, "BSTAR": 0.00033221751, "MEAN_MOTION_DOT": 0.00013586, "MEAN_MOTION_DDOT": 0}, "tle": {"line1": "1 59065U 24039Q   25342.96689755  .00013586  00000+0  33222-3 0  9991", "line2": "2 59065  97.4637 313.8202 0012686  83.4205 276.8485 15.40844271 99304"}}, "geometry": {"type": "Point", "coordinates": [136.771669157325, 19.020868932927506]}}, {"type": "Feature", "properties": {"norad_id": 59371, "name": "RESURS-P 4", "group": "resource", "lat": 50.816643053200984, "lon": -79.27036757118023, "alt_km": 463.88569088209897, "timestamp": "2025-12-09T07:41:32.860809+00:00", "meta": {"OBJECT_NAME": "RESURS-P 4", "OBJECT_ID": "2024-061A", "EPOCH": "2025-12-08T23:37:52.434624", "MEAN_MOTION": 15.32038574, "ECCENTRICITY": 0.00017789, "INCLINATION": 97.2543, "RA_OF_ASC_NODE": 289.3916, "ARG_OF_PERICENTER": 53.0537, "MEAN_ANOMALY": 307.0868, "EPHEMERIS_TYPE": 0, "CLASSIFICATION_TYPE": "U", "NORAD_CAT_ID": 59371, "ELEMENT_SET_NO": 999, "REV_AT_EPOCH": 9463, "BSTAR": 0.00016515615, "MEAN_MOTION_DOT": 5.032e-05, "MEAN_MOTION_DDOT": 0}, "tle": {"line1": "1 59371U 24061A   25342.98463466  .00005032  00000+0  16516-3 0  9991", "line2": "2 59371  97.2543 289.3916 0001778  53.0537 307.0868 15.32038574 94633"}}, "geometry": {"type": "Point", "coordinates": [-79.27036757118023, 50.816643053200984]}}, {"type": "Feature", "properties": {"norad_id": 59625, "name": "LEGION 1", "group": "resource", "lat": 70.22329406077026, "lon": -100.45333600175239, "alt_km": 511.9915676086084, "timestamp": "2025-12-09T07:41:32.860820+00:00", "meta": {"OBJECT_NAME": "LEGION 1", "OBJECT_ID": "2024-081A", "EPOCH": "2025-12-08T23:17:53.562912", "MEAN_MOTION": 15.1642017, "ECCENTRICITY": 0.00042642, "INCLINATION": 97.5213, "RA_OF_ASC_NODE": 57.6413, "ARG_OF_PERICENTER": 333.4762, "MEAN_ANOMALY": 26.6252, "EPHEMERIS_TYPE": 0, "CLASSIFICATION_TYPE": "U", "NORAD_CAT_ID": 59625, "ELEMENT_SET_NO": 999, "REV_AT_EPOCH": 8870, "BSTAR": 0.00033857214, "MEAN_MOTION_DOT": 6.516e-05, "MEAN_MOTION_DDOT": 0}, "tle": {"line1": "1 59625U 24081A   25342.97075883  .00006516  00000+0  33857-3 0  9991", "line2": "2 59625  97.5213  57.6413 0004264 333.4762  26.6252 15.16420170 88709"}}, "geometry": {"type": "Point", "coordinates": [-100.45333600175239, 70.22329406077026]}}, {"type": "Feature", "properties": {"norad_id": 59626, "name": "LEGION 2", "group": "resource", "lat": -70.6960775533845, "lon": 80.23680660128096, "alt_km": 520.1483164517022, "timestamp": "2025-12-09T07:41:32.860831+00:00", "meta": {"OBJECT_NAME": "LEGION 2", "OBJECT_ID": "2024-081B", "EPOCH": "2025-12-08T22:30:28.766880", "MEAN_MOTION": 15.16432839, "ECCENTRICITY": 0.00058524, "INCLINATION": 97.5217, "RA_OF_ASC_NODE": 57.6958, "ARG_OF_PERICENTER": 309.923, "MEAN_ANOMALY": 50.1488, "EPHEMERIS_TYPE": 0, "CLASSIFICATION_TYPE": "U", "NORAD_CAT_ID": 59626, "ELEMENT_SET_NO": 999, "REV_AT_EPOCH": 8870, "BSTAR": 0.00031551948, "MEAN_MOTION_DOT": 6.07e-05, "MEAN_MOTION_DDOT": 0}, "tle": {"line1": "1 59626U 24081B   25342.93783295  .00006070  00000+0  31552-3 0  9996", "line2": "2 59626  97.5217  57.6958 0005852 309.9230  50.1488 15.16432839 88708"}}, "geometry": {"type": "Point", "coordinates": [80.23680660128096, -70.6960775533845]}}, {"type": "Feature", "properties": {"norad_id": 60182, "name": "ALOS-4 (DAICHI-4)", "group": "resource", "lat": 39.09166232253086, "lon": 71.72040407255164, "alt_km": 627.536574521163, "timestamp": "2025-12-09T07:41:32.860842+00:00", "meta": {"OBJECT_NAME": "ALOS-4 (DAICHI-4)", "OBJECT_ID": "2024-123A", "EPOCH": "2025-12-08T21:46:30.749376", "MEAN_MOTION": 14.79470693, "ECCENTRICITY": 0.00014396, "INCLINATION": 97.9224, "RA_OF_ASC_NODE": 77.8092, "ARG_OF_PERICENTER": 100.9905, "MEAN_ANOMALY": 259.1468, "EPHEMERIS_TYPE": 0, "CLASSIFICATION_TYPE": "U", "NORAD_CAT_ID": 60182, "ELEMENT_SET_NO": 999, "REV_AT_EPOCH": 7774, "BSTAR": 0.00053540747, "MEAN_MOTION_DOT": 3.949e-05, "MEAN_MOTION_DDOT": 0}, "tle": {"line1": "1 60182U 24123A   25342.90730034  .00003949  00000+0  53541-3 0  9996", "line2": "2 60182  97.9224  77.8092 0001439 100.9905 259.1468 14.79470693 77746"}}, "geometry": {"type": "Point", "coordinates": [71.72040407255164, 39.09166232253086]}}, {"type": "Feature", "properties": {"norad_id": 60452, "name": "LEGION 3", "group": "resource", "lat": -30.546183888527647, "lon": -67.73048337142036, "alt_km": 528.7232342355019, "timestamp": "2025-12-09T07:41:32.860853+00:00", "meta": {"OBJECT_NAME": "LEGION 3", "OBJECT_ID": "2024-146A", "EPOCH": "2025-12-08T23:59:10.314816", "MEAN_MOTION": 15.1569931, "ECCENTRICITY": 0.0014445, "INCLINATION": 45.0026, "RA_OF_ASC_NODE": 330.1831, "ARG_OF_PERICENTER": 178.335, "MEAN_ANOMALY": 181.7578, "EPHEMERIS_TYPE": 0, "CLASSIFICATION_TYPE": "U", "NORAD_CAT_ID": 60452, "ELEMENT_SET_NO": 999, "REV_AT_EPOCH": 7316, "BSTAR": 0.00034558799, "MEAN_MOTION_DOT": 6.449e-05, "MEAN_MOTION_DDOT": 0}, "tle": {"line1": "1 60452U 24146A   25342.99942494  .00006449  00000+0  34559-3 0  9991", "line2": "2 60452  45.0026 330.1831 0014445 178.3350 181.7578 15.15699310 73164"}}, "geometry": {"type": "Point", "coordinates": [-67.73048337142036, -30.546183888527647]}}]}